NORAD_CAT_ID,OBJECT_NAME,OBJECT_TYPE,EPOCH,MEAN_MOTION,ECCENTRICITY,INCLINATION,RA_OF_ASC_NODE,ARG_OF_PERICENTER,MEAN_ANOMALY,BSTAR,MEAN_MOTION_DOT,MEAN_MOTION_DDOT,TLE_LINE0,TLE_LINE1,TLE_LINE2,SEMIMAJOR_AXIS,PERIOD,APOGEE,PERIGEE,DECAYED
54193.0,STARLINK-5263,PAYLOAD,2022-12-03 22:00:00,15.73209626,0.0004059,53.2149,321.4058,4.6491,167.1217,0.00011656,0.00015778,0.0,0 STARLINK-5263,1 54193U 22141AN  22337.91667824  .00015778  00000-0  11656-3 0  9992,2 54193  53.2149 321.4058 0004059   4.6491 167.1217 15.73209626  1303,6727.868,91.533,352.464,347.00199999999984,0.0
54193.0,STARLINK-5263,PAYLOAD,2022-12-04 04:00:00,15.73238215,0.0004231,53.2145,320.1701,5.2497,143.2274,-0.0005902,-0.00082829,0.0,0 STARLINK-5263,1 54193U 22141AN  22338.16667824 -.00082829  00000-0 -59020-3 0  9990,2 54193  53.2145 320.1701 0004231   5.2497 143.2274 15.73238215  6102,6727.786,91.531,352.49800000000016,346.805,0.0
54193.0,STARLINK-5263,PAYLOAD,2022-12-04 12:00:00,15.73212113,0.000424,53.2139,318.5209,3.4288,233.9782,-8.8618e-05,-0.00013056,0.0,0 STARLINK-5263,1 54193U 22141AN  22338.50001157 -.00013056  00000-0 -88618-4 0  9991,2 54193  53.2139 318.5209 0004240   3.4288 233.9782 15.73212113  6152,6727.861,91.532,352.57800000000015,346.87300000000016,0.0
54193.0,STARLINK-5263,PAYLOAD,2022-12-04 14:00:01,15.73241858,0.0004169,53.214,318.108,3.2717,346.3614,-0.00059644,-0.00083701,0.0,0 STARLINK-5263,1 54193U 22141AN  22338.58334491 -.00083701  00000-0 -59644-3 0  9999,2 54193  53.2140 318.1080 0004169   3.2717 346.3614 15.73241858  1305,6727.776,91.531,352.446,346.836,0.0
54193.0,STARLINK-5263,PAYLOAD,2022-12-04 22:00:00,15.73158979,0.0003839,53.2143,316.4569,3.3241,75.2565,0.00064806,0.00091189,0.0,0 STARLINK-5263,1 54193U 22141AN  22338.91667824  .00091189  00000-0  64806-3 0  9998,2 54193  53.2143 316.4569 0003839   3.3241  75.2565 15.73158979  1301,6728.012,91.536,352.46,347.2940000000001,0.0
54193.0,STARLINK-5263,PAYLOAD,2022-12-05 06:00:00,15.7323723,0.0004096999999999,53.2143,314.8092,2.5238,164.9861,-0.0003009,-0.00042729,0.0,0 STARLINK-5263,1 54193U 22141AN  22339.25001157 -.00042729  00000-0 -30090-3 0  9993,2 54193  53.2143 314.8092 0004097   2.5238 164.9861 15.73237230  6272,6727.7890000000025,91.531,352.41,346.898,0.0
54193.0,STARLINK-5263,PAYLOAD,2022-12-05 14:00:01,15.73249078,0.000403,53.2144,313.1587,0.0296,256.4856,-0.0003061,-0.00043474,0.0,0 STARLINK-5263,1 54193U 22141AN  22339.58335648 -.00043474  00000-0 -30610-3 0  9990,2 54193  53.2144 313.1587 0004030   0.0296 256.4856 15.73249078  1301,6727.755,91.53,352.332,346.909,0.0
54193.0,STARLINK-5263,PAYLOAD,2022-12-05 15:57:50,15.73211289,0.0004158,53.2152,312.7533,7.0965,353.0113,1.5247e-05,1.517e-05,0.0,0 STARLINK-5263,1 54193U 22141AN  22339.66516299  .00001517  00000-0  15247-4 0  9992,2 54193  53.2152 312.7533 0004158   7.0965 353.0113 15.73211289  6349,6727.863,91.533,352.525,346.931,0.0
54193.0,STARLINK-5263,PAYLOAD,2022-12-06 07:12:37,15.73227139,0.0004202,53.2153,309.6099,5.5283,354.5783,4.9944e-05,6.401e-05,0.0,0 STARLINK-5263,1 54193U 22141AN  22340.30043275  .00006401  00000-0  49944-4 0  9992,2 54193  53.2153 309.6099 0004202   5.5283 354.5783 15.73227139  6449,6727.818,91.532,352.51,346.856,0.0
54193.0,STARLINK-5263,PAYLOAD,2022-12-06 14:50:02,15.73189649,0.000434,53.2152,308.036,4.9417,355.1646,-3.8336e-05,-6.002e-05,0.0,0 STARLINK-5263,1 54193U 22141AN  22340.61808514 -.00006002  00000-0 -38336-4 0  9993,2 54193  53.2152 308.0360 0004340   4.9417 355.1646 15.73189649  6490,6727.925,91.534,352.71,346.87,0.0
54193.0,STARLINK-5263,PAYLOAD,2022-12-07 09:07:48,15.73212277,0.0003672,53.2148,304.264,2.8037,357.3003,4.5714e-05,5.801e-05,0.0,0 STARLINK-5263,1 54193U 22141AN  22341.38041974  .00005801  00000-0  45714-4 0  9999,2 54193  53.2148 304.2640 0003672   2.8037 357.3003 15.73212277  6615,6727.86,91.532,352.196,347.255,0.0
54193.0,STARLINK-5263,PAYLOAD,2022-12-08 00:22:36,15.73212937,0.000408,53.2143,301.121,9.5839,350.5258,5.7559e-05,7.468e-05,0.0,0 STARLINK-5263,1 54193U 22141AN  22342.01570272  .00007468  00000-0  57559-4 0  9999,2 54193  53.2143 301.1210 0004080   9.5839 350.5258 15.73212937  6718,6727.858,91.532,352.468,346.978,0.0
54193.0,STARLINK-5263,PAYLOAD,2022-12-08 06:28:31,15.73225176,0.000444,53.2144,299.8655,10.536,349.5753,6.776199999999999e-05,8.909999999999997e-05,0.0,0 STARLINK-5263,1 54193U 22141AN  22342.26980917  .00008910  00000-0  67762-4 0  9997,2 54193  53.2144 299.8655 0004440  10.5360 349.5753 15.73225176  6522,6727.823,91.532,352.676,346.701,0.0
54193.0,STARLINK-5263,PAYLOAD,2022-12-08 14:05:54,15.73244191,0.0003856,53.2149,298.291,8.4704,351.6381,0.00011819,0.00016032,0.0,0 STARLINK-5263,1 54193U 22141AN  22342.58743931  .00016032  00000-0  11819-3 0  9990,2 54193  53.2149 298.2910 0003856   8.4704 351.6381 15.73244191  6802,6727.769,91.531,352.228,347.04,0.0
54193.0,STARLINK-5263,PAYLOAD,2022-12-08 23:14:46,15.73264292,0.0003751,53.2151,296.4059,1.714,358.3892,0.00010679,0.00014435,0.0,0 STARLINK-5263,1 54193U 22141AN  22342.96858940  .00014435  00000-0  10679-3 0  9997,2 54193  53.2151 296.4059 0003751   1.7140 358.3892 15.73264292  6864,6727.712,91.529,352.1,347.05300000000005,0.0
54193.0,STARLINK-5263,PAYLOAD,2022-12-09 06:52:09,15.73249201,0.000359,53.2153,294.8346,359.4579,0.6436,-1.4e-06,-8.21e-06,0.0,0 STARLINK-5263,1 54193U 22141AN  22343.28622013 -.00000821  00000-0 -14000-5 0  9993,2 54193  53.2153 294.8346 0003590 359.4579   0.6436 15.73249201  6681,6727.755,91.53,352.035,347.205,0.0
54193.0,STARLINK-5263,PAYLOAD,2022-12-09 20:35:22,15.73365205,0.0004201,53.2158,292.0067,333.0429,27.0373,0.00023846,0.00033226,0.0,0 STARLINK-5263,1 54193U 22141AN  22343.85789566  .00033226  00000-0  23846-3 0  9992,2 54193  53.2158 292.0067 0004201 333.0429  27.0373 15.73365205  7001,6727.424,91.524,352.115,346.463,0.0
54193.0,STARLINK-5263,PAYLOAD,2022-12-10 05:44:17,15.73205145,0.0003938,53.2156,290.121,14.8164,345.2971,-0.00042157,-0.00059415,0.0,0 STARLINK-5263,1 54193U 22141AN  22344.23908694 -.00059415  00000-0 -42157-3 0  9996,2 54193  53.2156 290.1210 0003938  14.8164 345.2971 15.73205145  7065,6727.880999999999,91.533,352.395,347.096,0.0
54193.0,STARLINK-5263,PAYLOAD,2022-12-11 03:05:01,15.73239532,0.0003077,53.2159,285.7202,7.0984,353.0079,-7.3445e-05,-0.00010938,0.0,0 STARLINK-5263,1 54193U 22141AN  22345.12849084 -.00010938  00000-0 -73445-4 0  9994,2 54193  53.2159 285.7202 0003077   7.0984 353.0079 15.73239532  7206,6727.781999999997,91.531,351.718,347.577,0.0
54193.0,STARLINK-5263,PAYLOAD,2022-12-11 10:42:31,15.73192422,0.0004965,53.2159,284.1479,6.3561,353.7522,-4.390100000000001e-05,-6.785e-05,0.0,0 STARLINK-5263,1 54193U 22141AN  22345.44619238 -.00006785  00000-0 -43901-4 0  9994,2 54193  53.2159 284.1479 0004965   6.3561 353.7522 15.73192422  7256,6727.917,91.534,353.122,346.441,0.0
54193.0,STARLINK-5263,PAYLOAD,2022-12-12 01:57:37,15.72319787,0.0006138999999999,53.2156,281.007,136.3183,223.8323,-0.0032488,-0.00419269,0.0,0 STARLINK-5263,1 54193U 22141AN  22346.08168750 -.00419269  00000-0 -32488-2 0  9994,2 54193  53.2156 281.0070 0006139 136.3183 223.8323 15.72319787  7356,6730.406,91.584,356.403,348.139,0.0
54193.0,STARLINK-5263,PAYLOAD,2022-12-12 05:01:13,15.70844789,0.0008834,53.215,280.3769,140.9109,219.255,-0.0077334999999999,-0.00888154,0.0,0 STARLINK-5263,1 54193U 22141AN  22346.20918974 -.00888154  00000-0 -77335-2 0  9992,2 54193  53.2150 280.3769 0008834 140.9109 219.2550 15.70844789  7376,6734.618,91.67,362.4330000000001,350.534,0.0
54193.0,STARLINK-5263,PAYLOAD,2022-12-12 11:06:13,15.73216505,0.0004201,53.2149,279.1138,8.1994,351.9094,-3.0157e-05,-4.86e-05,0.0,0 STARLINK-5263,1 54193U 22141AN  22346.46265711 -.00004860  00000-0 -30157-4 0  9991,2 54193  53.2149 279.1138 0004201   8.1994 351.9094 15.73216505  7415,6727.848000000001,91.532,352.539,346.88699999999994,0.0
54193.0,STARLINK-5263,PAYLOAD,2022-12-13 02:21:01,15.73202799,0.0003677,53.2148,275.9705,11.2109,348.8993,-2.0594e-05,-3.515e-05,0.0,0 STARLINK-5263,1 54193U 22141AN  22347.09793962 -.00003515  00000-0 -20594-4 0  9995,2 54193  53.2148 275.9705 0003677  11.2109 348.8993 15.73202799  7511,6727.887,91.533,352.226,347.278,0.0
54193.0,STARLINK-5263,PAYLOAD,2022-12-13 05:23:59,15.73204677,0.0003699,53.2145,275.3411,13.9592,346.153,-9.8459e-07,-7.63e-06,0.0,0 STARLINK-5263,1 54193U 22141AN  22347.22499587 -.00000763  00000-0 -98459-6 0  9995,2 54193  53.2145 275.3411 0003699  13.9592 346.1530 15.73204677  7307,6727.882,91.533,352.235,347.2580000000001,0.0
54193.0,STARLINK-5263,PAYLOAD,2022-12-14 11:53:36,15.73223876,0.000372,53.2146,269.0545,11.4981,348.6123,9.9927e-05,0.00013441,0.0,0 STARLINK-5263,1 54193U 22141AN  22348.49555732  .00013441  00000-0  99927-4 0  9994,2 54193  53.2146 269.0545 0003720  11.4981 348.6123 15.73223876  7505,6727.8269999999975,91.532,352.195,347.189,0.0
54193.0,STARLINK-5263,PAYLOAD,2022-12-15 04:39:52,15.73234046,0.0003792,53.2142,265.5951,10.0901,350.0195,6.2654e-05,8.193e-05,0.0,0 STARLINK-5263,1 54193U 22141AN  22349.19435205  .00008193  00000-0  62654-4 0  9999,2 54193  53.2142 265.5951 0003792  10.0901 350.0195 15.73234046  7843,6727.7980000000025,91.531,352.214,347.112,0.0
54193.0,STARLINK-5263,PAYLOAD,2022-12-15 18:23:10,15.73228227,0.0003886,53.2136,262.7657,4.8473,355.2584,2.1386e-05,2.382e-05,0.0,0 STARLINK-5263,1 54193U 22141AN  22349.76609654  .00002382  00000-0  21386-4 0  9994,2 54193  53.2136 262.7657 0003886   4.8473 355.2584 15.73228227  7930,6727.815,91.532,352.2940000000001,347.065,0.0
54193.0,STARLINK-5263,PAYLOAD,2022-12-16 00:29:05,15.7321863,0.0003152,53.2139,261.5097,10.0822,350.0261,-1.5228e-05,-2.762e-05,0.0,0 STARLINK-5263,1 54193U 22141AN  22350.02020725 -.00002762  00000-0 -15228-4 0  9993,2 54193  53.2139 261.5097 0003152  10.0822 350.0261 15.73218630  7977,6727.842,91.532,351.82800000000015,347.586,0.0
